[{"OBJECT_NAME":"CARBONITE 1 (CBNT-1)","OBJECT_ID":"2015-032D","EPOCH":"2026-03-09T23:00:42.777216","MEAN_MOTION":14.83223736,"ECCENTRICITY":0.0013267,"INCLINATION":97.6467,"RA_OF_ASC_NODE":251.2159,"ARG_OF_PERICENTER":259.6402,"MEAN_ANOMALY":100.3317,"EPHEMERIS_TYPE":0,"CLASSIFICATION_TYPE":"U","NORAD_CAT_ID":40718,"ELEMENT_SET_NO":999,"REV_AT_EPOCH":57463,"BSTAR":0.00052444673,"MEAN_MOTION_DOT":4.241e-5,"MEAN_MOTION_DDOT":0},{"OBJECT_NAME":"SL-14 R\/B","OBJECT_ID":"1985-009B","EPOCH":"2026-03-09T12:31:38.807616","MEAN_MOTION":14.86118469,"ECCENTRICITY":0.00177921,"INCLINATION":82.5198,"RA_OF_ASC_NODE":79.0201,"ARG_OF_PERICENTER":243.1549,"MEAN_ANOMALY":116.7849,"EPHEMERIS_TYPE":0,"CLASSIFICATION_TYPE":"U","NORAD_CAT_ID":15495,"ELEMENT_SET_NO":999,"REV_AT_EPOCH":20162,"BSTAR":6.1904017e-5,"MEAN_MOTION_DOT":5.68e-6,"MEAN_MOTION_DDOT":0}]
